OBJECT_NAME,OBJECT_ID,EPOCH,MEAN_MOTION,ECCENTRICITY,INCLINATION,RA_OF_ASC_NODE,ARG_OF_PERICENTER,MEAN_ANOMALY,EPHEMERIS_TYPE,CLASSIFICATION_TYPE,NORAD_CAT_ID,ELEMENT_SET_NO,REV_AT_EPOCH,BSTAR,MEAN_MOTION_DOT,MEAN_MOTION_DDOT
STARLINK-4409,2022-084Q,2026-06-27T04:03:46.340640,15.05641502,.00019121,97.3070,237.8008,91.6512,268.4934,0,U,53203,999,21585,-.67980673E-4,-.1037E-4,0
STARLINK-4410,2022-084R,2026-06-27T06:00:02.000160,15.36368926,.00011597,97.6009,239.6202,79.4253,210.1173,0,U,53204,999,584,.14513856E-2,.51682E-3,0
STARLINK-4397,2022-084S,2026-06-27T03:55:46.707456,15.05706827,.00015365,97.3046,237.8015,131.8618,228.2741,0,U,53205,999,21585,-.68838072E-3,-.999E-4,0
STARLINK-4408,2022-084T,2026-06-27T04:15:42.669216,15.05705316,.00015849,97.3067,237.7890,81.8607,278.2800,0,U,53206,999,21585,-.64283157E-3,-.9333E-4,0
STARLINK-4413,2022-084U,2026-06-27T03:21:54.677088,15.05701976,.00020345,97.3046,236.5990,91.6418,268.5043,0,U,53207,999,21577,-.77851757E-3,-.11287E-3,0
STARLINK-4425,2022-084V,2026-06-27T03:17:56.565600,15.05656111,.00020282,97.3183,236.6365,116.7120,243.4315,0,U,53208,999,21577,-.27247938E-4,-.45E-5,0
STARLINK-4423,2022-084W,2026-06-27T03:41:52.791936,15.05668793,.00017452,97.3052,236.7360,111.7688,248.3726,0,U,53209,999,21578,-.26357965E-3,-.3859E-4,0
STARLINK-4427,2022-084X,2026-06-27T03:13:57.362880,15.05709993,.00020405,97.3081,236.6270,357.2687,2.8530,0,U,53210,999,21631,-.83736081E-3,-.12137E-3,0
STARLINK-4416,2022-084Z,2026-06-27T03:59:46.865760,15.05653425,.00008844,97.3094,237.7865,111.8033,248.3289,0,U,53212,999,21584,-.19506696E-3,-.287E-4,0
STARLINK-4414,2022-084AA,2026-06-27T04:13:46.967520,15.05651968,.00020991,97.3102,236.6854,145.1457,214.9909,0,U,53213,999,21630,-.17051927E-3,-.2516E-4,0
STARLINK-4353,2022-084AB,2026-06-27T06:17:21.321312,15.05678935,.00021779,97.3072,236.7391,129.9514,230.1905,0,U,53214,999,21579,.15991468E-3,.2253E-4,0
STARLINK-4335,2022-084AC,2026-06-27T03:35:50.393184,15.05714202,.00014006,97.3040,237.7822,73.0311,287.1070,0,U,53215,999,21637,-.82747109E-3,-.11996E-3,0
STARLINK-4376,2022-084AD,2026-06-27T02:50:03.267168,15.05634031,.00009782,97.3119,236.6193,161.2730,198.8534,0,U,53216,999,21577,-.15665551E-3,-.2315E-4,0
STARLINK-4384,2022-084AF,2026-06-27T03:11:41.781408,15.04861449,.00011915,97.3425,237.8503,70.5615,289.5741,0,U,53218,999,21637,-.39784742E-3,-.5672E-4,0
STARLINK-4373,2022-084AG,2026-06-27T03:43:49.100160,15.05651342,.00007487,97.3059,237.7575,122.9648,237.1651,0,U,53219,999,21585,-.10837632E-4,-.213E-5,0
STARLINK-4363,2022-084AH,2026-06-27T02:54:00.468864,15.05709319,.00013668,97.3076,236.6009,114.1863,245.9508,0,U,53220,999,21629,-.63263403E-3,-.9187E-4,0
STARLINK-4377,2022-084AJ,2026-06-27T03:33:54.253440,15.05657277,.00020954,97.3042,236.6963,88.7372,271.4096,0,U,53221,999,21578,-.42148484E-4,-.665E-5,0
STARLINK-4356,2022-084AM,2026-06-27T02:57:59.732928,15.05707175,.00011018,97.3057,236.5864,92.2373,267.8981,0,U,53224,999,21577,-.61497857E-3,-.8932E-4,0
STARLINK-4358,2022-084AN,2026-06-27T03:47:48.248448,15.05653287,.00010506,97.3051,237.7369,111.9139,248.2201,0,U,53225,999,21585,-.3116878E-5,-.101E-5,0
STARLINK-4359,2022-084AP,2026-06-27T04:09:48.841344,15.05632440,.00017233,97.3075,236.6616,113.1894,246.9515,0,U,53226,999,21578,-.22557628E-3,-.3308E-4,0
STARLINK-4366,2022-084AQ,2026-06-27T03:19:53.127840,15.05708356,.00006389,97.3101,237.7456,30.8399,329.2866,0,U,53227,999,21585,-.75218039E-3,-.10909E-3,0
STARLINK-4365,2022-084AR,2026-06-27T03:09:56.103840,15.05722843,.00012901,97.3077,236.7112,117.3462,242.7898,0,U,53228,999,21578,-.15947307E-3,-.2361E-4,0
STARLINK-4367,2022-084AS,2026-06-27T03:27:49.277376,15.05674769,.00016513,97.3392,237.7821,97.6298,262.5118,0,U,53229,999,21585,.58948712E-4,.794E-5,0
STARLINK-4364,2022-084AT,2026-06-27T02:56:00.412800,15.05662121,.00010794,97.3103,237.7821,81.6479,278.4871,0,U,53230,999,21585,-.71478905E-3,-.10358E-3,0
STARLINK-4370,2022-084AU,2026-06-27T03:11:55.131936,15.05663493,.00003163,97.3073,237.7572,170.5493,189.5740,0,U,53231,999,21585,-.85393771E-4,-.1289E-4,0
STARLINK-4371,2022-084AV,2026-06-27T04:05:48.059232,15.05650611,.00019052,97.3078,236.6435,117.7257,242.4164,0,U,53232,999,21578,.682531E-5,.42E-6,0
STARLINK-4372,2022-084AW,2026-06-27T03:53:50.058816,15.05664244,.00015625,97.3052,236.6466,110.1905,249.9490,0,U,53233,999,21578,-.14351132E-3,-.2127E-4,0
STARLINK-4368,2022-084AX,2026-06-27T06:00:02.000160,15.48980745,.00015406,97.6005,240.1761,69.4826,332.3258,0,U,53234,999,585,.24879671E-2,.136608E-2,0
STARLINK-4056,2022-086A,2026-06-26T23:59:40.057152,15.08831353,.00014343,53.1617,68.2478,101.8936,258.2216,0,U,53242,999,21781,.8646873E-5,-.15E-5,0
STARLINK-4047,2022-086B,2026-06-26T23:19:12.440064,15.08830752,.0001155,53.1616,73.0766,86.6380,273.4743,0,U,53243,999,21776,-.28978E-4,-.749E-5,0
