STARLINK-4409           
1 53203U 22084Q   26178.16928635 -.00001037  00000+0 -67981-4 0  9990
2 53203  97.3070 237.8008 0001912  91.6512 268.4934 15.05641502215852
STARLINK-4410           
1 53204U 22084R   26178.25002315  .00051682  00000+0  14514-2 0  9990
2 53204  97.6009 239.6202 0001159  79.4253 210.1173 15.36368926  5848
STARLINK-4397           
1 53205U 22084S   26178.16373504 -.00009990  00000+0 -68838-3 0  9998
2 53205  97.3046 237.8015 0001536 131.8618 228.2741 15.05706827215853
STARLINK-4408           
1 53206U 22084T   26178.17757719 -.00009333  00000+0 -64283-3 0  9995
2 53206  97.3067 237.7890 0001584  81.8607 278.2800 15.05705316215855
STARLINK-4413           
1 53207U 22084U   26178.14021617 -.00011287  00000+0 -77852-3 0  9991
2 53207  97.3046 236.5990 0002034  91.6418 268.5043 15.05701976215771
STARLINK-4425           
1 53208U 22084V   26178.13746025 -.00000450  00000+0 -27248-4 0  9993
2 53208  97.3183 236.6365 0002028 116.7120 243.4315 15.05656111215777
STARLINK-4423           
1 53209U 22084W   26178.15408324 -.00003859  00000+0 -26358-3 0  9999
2 53209  97.3052 236.7360 0001745 111.7688 248.3726 15.05668793215788
STARLINK-4427           
1 53210U 22084X   26178.13469170 -.00012137  00000+0 -83736-3 0  9997
2 53210  97.3081 236.6270 0002040 357.2687   2.8530 15.05709993216310
STARLINK-4416           
1 53212U 22084Z   26178.16651465 -.00002870  00000+0 -19507-3 0  9990
2 53212  97.3094 237.7865 0000884 111.8033 248.3289 15.05653425215844
STARLINK-4414           
1 53213U 22084AA  26178.17623805 -.00002516  00000+0 -17052-3 0  9999
2 53213  97.3102 236.6854 0002099 145.1457 214.9909 15.05651968216301
STARLINK-4353           
1 53214U 22084AB  26178.26205233  .00002253  00000+0  15991-3 0  9997
2 53214  97.3072 236.7391 0002177 129.9514 230.1905 15.05678935215797
STARLINK-4335           
1 53215U 22084AC  26178.14988881 -.00011996  00000+0 -82747-3 0  9991
2 53215  97.3040 237.7822 0001400  73.0311 287.1070 15.05714202216373
STARLINK-4376           
1 53216U 22084AD  26178.11809337 -.00002315  00000+0 -15666-3 0  9998
2 53216  97.3119 236.6193 0000978 161.2730 198.8534 15.05634031215771
STARLINK-4384           
1 53218U 22084AF  26178.13312247 -.00005672  00000+0 -39785-3 0  9998
2 53218  97.3425 237.8503 0001191  70.5615 289.5741 15.04861449216372
STARLINK-4373           
1 53219U 22084AG  26178.15542940 -.00000213  00000+0 -10838-4 0  9991
2 53219  97.3059 237.7575 0000748 122.9648 237.1651 15.05651342215850
STARLINK-4363           
1 53220U 22084AH  26178.12083876 -.00009187  00000+0 -63263-3 0  9996
2 53220  97.3076 236.6009 0001366 114.1863 245.9508 15.05709319216295
STARLINK-4377           
1 53221U 22084AJ  26178.14854460 -.00000665  00000+0 -42148-4 0  9996
2 53221  97.3042 236.6963 0002095  88.7372 271.4096 15.05657277215783
STARLINK-4356           
1 53224U 22084AM  26178.12360802 -.00008932  00000+0 -61498-3 0  9992
2 53224  97.3057 236.5864 0001101  92.2373 267.8981 15.05707175215773
STARLINK-4358           
1 53225U 22084AN  26178.15819732 -.00000101  00000+0 -31169-5 0  9991
2 53225  97.3051 237.7369 0001050 111.9139 248.2201 15.05653287215854
STARLINK-4359           
1 53226U 22084AP  26178.17348196 -.00003308  00000+0 -22558-3 0  9997
2 53226  97.3075 236.6616 0001723 113.1894 246.9515 15.05632440215786
STARLINK-4366           
1 53227U 22084AQ  26178.13880935 -.00010909  00000+0 -75218-3 0  9992
2 53227  97.3101 237.7456 0000638  30.8399 329.2866 15.05708356215852
STARLINK-4365           
1 53228U 22084AR  26178.13189935 -.00002361  00000+0 -15947-3 0  9991
2 53228  97.3077 236.7112 0001290 117.3462 242.7898 15.05722843215783
STARLINK-4367           
1 53229U 22084AS  26178.14432034  .00000794  00000+0  58949-4 0  9990
2 53229  97.3392 237.7821 0001651  97.6298 262.5118 15.05674769215856
STARLINK-4364           
1 53230U 22084AT  26178.12222700 -.00010358  00000+0 -71479-3 0  9998
2 53230  97.3103 237.7821 0001079  81.6479 278.4871 15.05662121215857
STARLINK-4370           
1 53231U 22084AU  26178.13327699 -.00001289  00000+0 -85394-4 0  9998
2 53231  97.3073 237.7572 0000316 170.5493 189.5740 15.05663493215854
STARLINK-4371           
1 53232U 22084AV  26178.17069513  .00000042  00000+0  68253-5 0  9991
2 53232  97.3078 236.6435 0001905 117.7257 242.4164 15.05650611215781
STARLINK-4372           
1 53233U 22084AW  26178.16238494 -.00002127  00000+0 -14351-3 0  9993
2 53233  97.3052 236.6466 0001562 110.1905 249.9490 15.05664244215785
STARLINK-4368           
1 53234U 22084AX  26178.25002315  .00136608  00000+0  24880-2 0  9992
2 53234  97.6005 240.1761 0001540  69.4826 332.3258 15.48980745  5857
STARLINK-4056           
1 53242U 22086A   26177.99976918 -.00000150  00000+0  86469-5 0  9999
2 53242  53.1617  68.2478 0001434 101.8936 258.2216 15.08831353217818
STARLINK-4047           
1 53243U 22086B   26177.97167176 -.00000749  00000+0 -28978-4 0  9991
2 53243  53.1616  73.0766 0001155  86.6380 273.4743 15.08830752217765
